[
    {
        "CCSDS_OMM_VERS": "3.0",
        "COMMENT": "GENERATED VIA SPACE-TRACK.ORG API",
        "CREATION_DATE": "2025-05-03T02:26:48",
        "ORIGINATOR": "18 SPCS",
        "OBJECT_NAME": "BEIDOU 3M8",
        "OBJECT_ID": "2018-029B",
        "CENTER_NAME": "EARTH",
        "REF_FRAME": "TEME",
        "TIME_SYSTEM": "UTC",
        "MEAN_ELEMENT_THEORY": "SGP4",
        "EPOCH": "2025-05-02T02:39:09.153504",
        "MEAN_MOTION": "1.86229039",
        "ECCENTRICITY": "0.00045550",
        "INCLINATION": "54.5598",
        "RA_OF_ASC_NODE": "314.3131",
        "ARG_OF_PERICENTER": "26.7051",
        "MEAN_ANOMALY": "333.3180",
        "EPHEMERIS_TYPE": "0",
        "CLASSIFICATION_TYPE": "U",
        "NORAD_CAT_ID": "43246",
        "ELEMENT_SET_NO": "999",
        "REV_AT_EPOCH": "4822",
        "BSTAR": "0.00000000000000",
        "MEAN_MOTION_DOT": "-0.00000066",
        "MEAN_MOTION_DDOT": "0.0000000000000",
        "SEMIMAJOR_AXIS": "27906.384",
        "PERIOD": "773.241",
        "APOAPSIS": "21540.961",
        "PERIAPSIS": "21515.538",
        "OBJECT_TYPE": "PAYLOAD",
        "RCS_SIZE": "LARGE",
        "COUNTRY_CODE": "PRC",
        "LAUNCH_DATE": "2018-03-29",
        "SITE": "XSC",
        "DECAY_DATE": null,
        "FILE": "4717276",
        "GP_ID": "286715580",
        "TLE_LINE0": "0 BEIDOU 3M8",
        "TLE_LINE1": "1 43246U 18029B   25122.11052261 -.00000066  00000-0  00000-0 0  9992",
        "TLE_LINE2": "2 43246  54.5598 314.3131 0004555  26.7051 333.3180  1.86229039 48220"
    }
]